COMMENT,ORIGINATOR,NORAD_CAT_ID,OBJECT_NAME,OBJECT_TYPE,CLASSIFICATION_TYPE,INTLDES,EPOCH,EPOCH_MICROSECONDS,MEAN_MOTION,ECCENTRICITY,INCLINATION,RA_OF_ASC_NODE,ARG_OF_PERICENTER,MEAN_ANOMALY,EPHEMERIS_TYPE,ELEMENT_SET_NO,REV_AT_EPOCH,BSTAR,MEAN_MOTION_DOT,MEAN_MOTION_DDOT,FILE,TLE_LINE0,TLE_LINE1,TLE_LINE2,OBJECT_ID,OBJECT_NUMBER,SEMIMAJOR_AXIS,PERIOD,APOGEE,PERIGEE,DECAYED
"GENERATED VIA SPACETRACK.ORG API","18 SPCS","56232","FENGYUN 3G","PAYLOAD","U","23055A","2024-01-31 11:39:55","516608","15.54169759","0.0005735","49.9968","140.4794","311.3325","48.7149","0","999","4513","0.00057411","0.00037844","0","4175996","0 FENGYUN 3G","1 56232U 23055A   24031.48605922  .00037844  00000-0  57411-3 0  9996","2 56232  49.9968 140.4794 0005735 311.3325  48.7149 15.54169759 45130","2023-055A","56232","6782.704","92.654","408.459","400.679","0"
"GENERATED VIA SPACETRACK.ORG API","18 SPCS","56232","FENGYUN 3G","PAYLOAD","U","23055A","2024-01-31 13:12:30","515616","15.54173812","0.0005737","49.9968","140.1474","311.7139","48.3338","0","999","4514","0.00056374","0.00037154","0","4176118","0 FENGYUN 3G","1 56232U 23055A   24031.55035319  .00037154  00000-0  56374-3 0  9992","2 56232  49.9968 140.1474 0005737 311.7139  48.3338 15.54173812 45143","2023-055A","56232","6782.692","92.654","408.449","400.666","0"
"GENERATED VIA SPACETRACK.ORG API","18 SPCS","56232","FENGYUN 3G","PAYLOAD","U","23055A","2024-01-31 17:50:15","385632","15.54189209","0.0005732","49.9967","139.1514","312.71","47.3385","0","999","4517","0.00057429","0.00037884","0","4176237","0 FENGYUN 3G","1 56232U 23055A   24031.74323363  .00037884  00000-0  57429-3 0  9994","2 56232  49.9967 139.1514 0005732 312.7100  47.3385 15.54189209 45170","2023-055A","56232","6782.648","92.653","408.400","400.625","0"
"GENERATED VIA SPACETRACK.ORG API","18 SPCS","56232","FENGYUN 3G","PAYLOAD","U","23055A","2024-01-31 17:50:15","385632","15.54189209","0.0005732","49.9967","139.1514","312.71","47.3385","0","999","4517","0.00057429","0.00037884","0","4176251","0 FENGYUN 3G","1 56232U 23055A   24031.74323363  .00037884  00000-0  57429-3 0  9994","2 56232  49.9967 139.1514 0005732 312.7100  47.3385 15.54189209 45170","2023-055A","56232","6782.648","92.653","408.400","400.625","0"
"GENERATED VIA SPACETRACK.ORG API","18 SPCS","56232","FENGYUN 3G","PAYLOAD","U","23055A","2024-02-01 03:05:44","710944","15.54213781","0.000572","49.9966","137.1593","314.5513","45.4987","0","999","4523","0.00052066","0.00034317","0","4176524","0 FENGYUN 3G","1 56232U 23055A   24032.12898971  .00034317  00000-0  52066-3 0  9999","2 56232  49.9966 137.1593 0005720 314.5513  45.4987 15.54213781 45236","2023-055A","56232","6782.576","92.651","408.321","400.561","0"
"GENERATED VIA SPACETRACK.ORG API","18 SPCS","56232","FENGYUN 3G","PAYLOAD","U","23055A","2024-02-01 10:48:38","689056","15.5423616","0.0005722","49.9964","135.4992","316.1465","43.9048","0","999","4528","0.00051277","0.00033815","0","4176778","0 FENGYUN 3G","1 56232U 23055A   24032.45044779  .00033815  00000-0  51277-3 0  9999","2 56232  49.9964 135.4992 0005722 316.1465  43.9048 15.54236160 45286","2023-055A","56232","6782.511","92.650","408.257","400.495","0"
"GENERATED VIA SPACETRACK.ORG API","18 SPCS","56232","FENGYUN 3G","PAYLOAD","U","23055A","2024-02-01 13:53:48","175584","15.54247046","0.0005741","49.9964","134.8353","316.9182","43.1336","0","999","4530","0.00055425","0.00036617","0","4176807","0 FENGYUN 3G","1 56232U 23055A   24032.57902981  .00036617  00000-0  55425-3 0  9992","2 56232  49.9964 134.8353 0005741 316.9182  43.1336 15.54247046 45305","2023-055A","56232","6782.479","92.649","408.238","400.450","0"
"GENERATED VIA SPACETRACK.ORG API","18 SPCS","56232","FENGYUN 3G","PAYLOAD","U","23055A","2024-02-01 18:31:32","264544","15.54262144","0.0005755","49.9963","133.8391","317.8958","42.1567","0","999","4533","0.00056726","0.00037513","0","4177056","0 FENGYUN 3G","1 56232U 23055A   24032.77190121  .00037513  00000-0  56726-3 0  9990","2 56232  49.9963 133.8391 0005755 317.8958  42.1567 15.54262144 45335","2023-055A","56232","6782.435","92.648","408.204","400.397","0"
"GENERATED VIA SPACETRACK.ORG API","18 SPCS","56232","FENGYUN 3G","PAYLOAD","U","23055A","2024-02-01 18:31:32","264544","15.54262144","0.0005755","49.9963","133.8391","317.8958","42.1567","0","999","4533","0.00056726","0.00037513","0","4177080","0 FENGYUN 3G","1 56232U 23055A   24032.77190121  .00037513  00000-0  56726-3 0  9990","2 56232  49.9963 133.8391 0005755 317.8958  42.1567 15.54262144 45335","2023-055A","56232","6782.435","92.648","408.204","400.397","0"
"GENERATED VIA SPACETRACK.ORG API","18 SPCS","56232","FENGYUN 3G","PAYLOAD","U","23055A","2024-02-02 02:14:25","442592","15.54282649","0.0005756","49.9963","132.1788","319.1812","40.8724","0","999","4538","0.00053294","0.00035231","0","4177319","0 FENGYUN 3G","1 56232U 23055A   24033.09335003  .00035231  00000-0  53294-3 0  9998","2 56232  49.9963 132.1788 0005756 319.1812  40.8724 15.54282649 45389","2023-055A","56232","6782.376","92.647","408.145","400.337","0"
"GENERATED VIA SPACETRACK.ORG API","18 SPCS","56232","FENGYUN 3G","PAYLOAD","U","23055A","2024-02-02 11:29:52","671840","15.54311146","0.0005739","49.9963","130.1867","320.7341","39.321","0","999","4544","0.00054093","0.00035807","0","4177592","0 FENGYUN 3G","1 56232U 23055A   24033.47908185  .00035807  00000-0  54093-3 0  9994","2 56232  49.9963 130.1867 0005739 320.7341  39.3210 15.54311146 45446","2023-055A","56232","6782.293","92.646","408.050","400.265","0"
"GENERATED VIA SPACETRACK.ORG API","18 SPCS","56232","FENGYUN 3G","PAYLOAD","U","23055A","2024-02-02 13:02:27","156768","15.54315453","0.0005747","49.9963","129.8545","321.0434","39.012","0","999","4545","0.00053714","0.00035557","0","4177630","0 FENGYUN 3G","1 56232U 23055A   24033.54336987  .00035557  00000-0  53714-3 0  9998","2 56232  49.9963 129.8545 0005747 321.0434  39.0120 15.54315453 45453","2023-055A","56232","6782.280","92.645","408.043","400.247","0"
"GENERATED VIA SPACETRACK.ORG API","18 SPCS","56232","FENGYUN 3G","PAYLOAD","U","23055A","2024-02-02 19:12:44","924544","15.54334541","0.0005755","49.9963","128.5261","322.2584","37.798","0","999","4549","0.00053605","0.00035509","0","4177920","0 FENGYUN 3G","1 56232U 23055A   24033.80051996  .00035509  00000-0  53605-3 0  9997","2 56232  49.9963 128.5261 0005755 322.2584  37.7980 15.54334541 45494","2023-055A","56232","6782.225","92.644","407.993","400.187","0"
"GENERATED VIA SPACETRACK.ORG API","18 SPCS","56232","FENGYUN 3G","PAYLOAD","U","23055A","2024-02-02 20:45:19","313568","15.54339667","0.0005753","49.9964","128.194","322.5007","37.5559","0","999","4550","0.00053912","0.00035722","0","4177944","0 FENGYUN 3G","1 56232U 23055A   24033.86480687  .00035722  00000-0  53912-3 0  9994","2 56232  49.9964 128.1940 0005753 322.5007  37.5559 15.54339667 45502","2023-055A","56232","6782.210","92.644","407.977","400.173","0"
"GENERATED VIA SPACETRACK.ORG API","18 SPCS","56232","FENGYUN 3G","PAYLOAD","U","23055A","2024-02-03 02:55:36","747840","15.54357208","0.0005741","49.9965","126.8657","323.4489","36.6086","0","999","4554","0.00053199","0.00035264","0","4178222","0 FENGYUN 3G","1 56232U 23055A   24034.12195310  .00035264  00000-0  53199-3 0  9998","2 56232  49.9965 126.8657 0005741 323.4489  36.6086 15.54357208 45544","2023-055A","56232","6782.159","92.643","407.917","400.130","0"
"GENERATED VIA SPACETRACK.ORG API","18 SPCS","56232","FENGYUN 3G","PAYLOAD","U","23055A","2024-02-03 12:11:02","412384","15.54384645","0.0005732","49.9966","124.8732","325.5137","34.5458","0","999","4560","0.00053077","0.00035218","0","4178485","0 FENGYUN 3G","1 56232U 23055A   24034.50766681  .00035218  00000-0  53077-3 0  9999","2 56232  49.9966 124.8732 0005732 325.5137  34.5458 15.54384645 45602","2023-055A","56232","6782.079","92.641","407.831","400.056","0"
"GENERATED VIA SPACETRACK.ORG API","18 SPCS","56232","FENGYUN 3G","PAYLOAD","U","23055A","2024-02-03 16:48:45","71424","15.54395825","0.0005735","49.9966","123.877","326.5508","33.5097","0","999","4563","0.00049747","0.00032982","0","4178738","0 FENGYUN 3G","1 56232U 23055A   24034.70052166  .00032982  00000-0  49747-3 0  9991","2 56232  49.9966 123.8770 0005735 326.5508  33.5097 15.54395825 45632","2023-055A","56232","6782.046","92.640","407.801","400.022","0"
"GENERATED VIA SPACETRACK.ORG API","18 SPCS","56232","FENGYUN 3G","PAYLOAD","U","23055A","2024-02-03 16:48:45","71424","15.54395825","0.0005735","49.9966","123.877","326.5508","33.5097","0","999","4563","0.00049747","0.00032982","0","4178824","0 FENGYUN 3G","1 56232U 23055A   24034.70052166  .00032982  00000-0  49747-3 0  9991","2 56232  49.9966 123.8770 0005735 326.5508  33.5097 15.54395825 45632","2023-055A","56232","6782.046","92.640","407.801","400.022","0"
"GENERATED VIA SPACETRACK.ORG API","18 SPCS","56232","FENGYUN 3G","PAYLOAD","U","23055A","2024-02-04 02:04:09","890976","15.54423485","0.0005729","49.9966","121.8845","328.4181","31.6442","0","999","4569","0.00052097","0.00034606","0","4179050","0 FENGYUN 3G","1 56232U 23055A   24035.08622559  .00034606  00000-0  52097-3 0  9999","2 56232  49.9966 121.8845 0005729 328.4181  31.6442 15.54423485 45697","2023-055A","56232","6781.966","92.639","407.716","399.946","0"
"GENERATED VIA SPACETRACK.ORG API","18 SPCS","56232","FENGYUN 3G","PAYLOAD","U","23055A","2024-02-04 11:19:34","116960","15.54451773","0.0005721","49.9966","119.8919","330.1938","29.8703","0","999","4575","0.00053985","0.0003592","0","4179343","0 FENGYUN 3G","1 56232U 23055A   24035.47192265  .00035920  00000-0  53985-3 0  9995","2 56232  49.9966 119.8919 0005721 330.1938  29.8703 15.54451773 45755","2023-055A","56232","6781.884","92.637","407.629","399.869","0"
